[{"OBJECT_NAME":"STARLINK-31829","OBJECT_ID":"2024-091T","EPOCH":"2026-03-09T07:06:29.071584","MEAN_MOTION":15.30159829,"ECCENTRICITY":0.00014123,"INCLINATION":53.1626,"RA_OF_ASC_NODE":28.7501,"ARG_OF_PERICENTER":111.3087,"MEAN_ANOMALY":248.8065,"EPHEMERIS_TYPE":0,"CLASSIFICATION_TYPE":"U","NORAD_CAT_ID":59770,"ELEMENT_SET_NO":999,"REV_AT_EPOCH":10294,"BSTAR":-0.0001478243,"MEAN_MOTION_DOT":-4.729e-5,"MEAN_MOTION_DDOT":0},{"OBJECT_NAME":"ARC-1","OBJECT_ID":"2015-058F","EPOCH":"2026-03-09T11:16:24.767040","MEAN_MOTION":15.39473048,"ECCENTRICITY":0.00404032,"INCLINATION":64.7636,"RA_OF_ASC_NODE":93.5186,"ARG_OF_PERICENTER":65.9865,"MEAN_ANOMALY":294.5492,"EPHEMERIS_TYPE":0,"CLASSIFICATION_TYPE":"U","NORAD_CAT_ID":40969,"ELEMENT_SET_NO":999,"REV_AT_EPOCH":10163,"BSTAR":0.0010773685,"MEAN_MOTION_DOT":0.00043725,"MEAN_MOTION_DDOT":0}]
